{
  "type": "FeatureCollection",
  "features": [
    {
      "type": "Feature",
      "properties": {
        "norad_id": 66442,
        "name": "STARLINK-34724",
        "group": "last-30-days",
        "lat": 26.09541497919108,
        "lon": -119.08598789949168,
        "alt_km": 411.5798262508615,
        "timestamp": "2025-12-04T23:34:04.490163+00:00",
        "meta_object_name": "STARLINK-34724",
        "meta_object_id": "2025-259W",
        "meta_epoch": "2025-12-04T18:00:02.000160",
        "meta_mean_motion": 15.50558974,
        "meta_eccentricity": 0.0001384,
        "meta_inclination": 43.0007,
        "meta_ra_of_asc_node": 93.9801,
        "meta_arg_of_pericenter": 269.6881,
        "meta_mean_anomaly": 13.6514,
        "meta_ephemeris_type": 0,
        "meta_classification_type": "U",
        "meta_norad_cat_id": 66442,
        "meta_element_set_no": 999,
        "meta_rev_at_epoch": 499,
        "meta_bstar": -7.2621e-05,
        "meta_mean_motion_dot": -4.596e-05,
        "meta_mean_motion_ddot": 0,
        "tle_line1": "1 66442U 25259W   25338.75002315 -.00004596  00000+0 -72621-4 0  9996",
        "tle_line2": "2 66442  43.0007  93.9801 0001384 269.6881  13.6514 15.50558974  4995"
      },
      "geometry": {
        "type": "Point",
        "coordinates": [
          -119.08598789949168,
          26.09541497919108
        ]
      }
    },
    {
      "type": "Feature",
      "properties": {
        "norad_id": 66443,
        "name": "STARLINK-35219",
        "group": "last-30-days",
        "lat": 24.972334399755677,
        "lon": -117.36662800467504,
        "alt_km": 411.62253483437144,
        "timestamp": "2025-12-04T23:34:04.490173+00:00",
        "meta_object_name": "STARLINK-35219",
        "meta_object_id": "2025-259X",
        "meta_epoch": "2025-12-04T18:00:02.000160",
        "meta_mean_motion": 15.50557586,
        "meta_eccentricity": 0.0001304,
        "meta_inclination": 43.0007,
        "meta_ra_of_asc_node": 93.9752,
        "meta_arg_of_pericenter": 263.2269,
        "meta_mean_anomaly": 22.0308,
        "meta_ephemeris_type": 0,
        "meta_classification_type": "U",
        "meta_norad_cat_id": 66443,
        "meta_element_set_no": 999,
        "meta_rev_at_epoch": 488,
        "meta_bstar": -2.4981e-05,
        "meta_mean_motion_dot": -1.805e-05,
        "meta_mean_motion_ddot": 0,
        "tle_line1": "1 66443U 25259X   25338.75002315 -.00001805  00000+0 -24981-4 0  9993",
        "tle_line2": "2 66443  43.0007  93.9752 0001304 263.2269  22.0308 15.50557586  4884"
      },
      "geometry": {
        "type": "Point",
        "coordinates": [
          -117.36662800467504,
          24.972334399755677
        ]
      }
    },
    {
      "type": "Feature",
      "properties": {
        "norad_id": 66444,
        "name": "STARLINK-35360",
        "group": "last-30-days",
        "lat": 21.493448448590527,
        "lon": -112.39368984194284,
        "alt_km": 412.1553409743674,
        "timestamp": "2025-12-04T23:34:04.490183+00:00",
        "meta_object_name": "STARLINK-35360",
        "meta_object_id": "2025-259Y",
        "meta_epoch": "2025-12-04T18:00:02.000160",
        "meta_mean_motion": 15.50540823,
        "meta_eccentricity": 0.0001496,
        "meta_inclination": 43.0006,
        "meta_ra_of_asc_node": 93.9603,
        "meta_arg_of_pericenter": 260.6859,
        "meta_mean_anomaly": 30.3342,
        "meta_ephemeris_type": 0,
        "meta_classification_type": "U",
        "meta_norad_cat_id": 66444,
        "meta_element_set_no": 999,
        "meta_rev_at_epoch": 499,
        "meta_bstar": 0.00019705,
        "meta_mean_motion_dot": 0.00011219,
        "meta_mean_motion_ddot": 0,
        "tle_line1": "1 66444U 25259Y   25338.75002315  .00011219  00000+0  19705-3 0  9999",
        "tle_line2": "2 66444  43.0006  93.9603 0001496 260.6859  30.3342 15.50540823  4995"
      },
      "geometry": {
        "type": "Point",
        "coordinates": [
          -112.39368984194284,
          21.493448448590527
        ]
      }
    },
    {
      "type": "Feature",
      "properties": {
        "norad_id": 66445,
        "name": "STARLINK-34698",
        "group": "last-30-days",
        "lat": 23.82990586629465,
        "lon": -115.67956656746,
        "alt_km": 411.76524844093365,
        "timestamp": "2025-12-04T23:34:04.490194+00:00",
        "meta_object_name": "STARLINK-34698",
        "meta_object_id": "2025-259Z",
        "meta_epoch": "2025-12-04T18:00:02.000160",
        "meta_mean_motion": 15.50563958,
        "meta_eccentricity": 0.000157,
        "meta_inclination": 43.0006,
        "meta_ra_of_asc_node": 93.9698,
        "meta_arg_of_pericenter": 256.519,
        "meta_mean_anomaly": 30.6565,
        "meta_ephemeris_type": 0,
        "meta_classification_type": "U",
        "meta_norad_cat_id": 66445,
        "meta_element_set_no": 999,
        "meta_rev_at_epoch": 488,
        "meta_bstar": -0.00025534,
        "meta_mean_motion_dot": -0.00015284,
        "meta_mean_motion_ddot": 0,
        "tle_line1": "1 66445U 25259Z   25338.75002315 -.00015284  00000+0 -25534-3 0  9995",
        "tle_line2": "2 66445  43.0006  93.9698 0001570 256.5190  30.6565 15.50563958  4887"
      },
      "geometry": {
        "type": "Point",
        "coordinates": [
          -115.67956656746,
          23.82990586629465
        ]
      }
    },
    {
      "type": "Feature",
      "properties": {
        "norad_id": 66446,
        "name": "STARLINK-34986",
        "group": "last-30-days",
        "lat": 22.665793851329845,
        "lon": -114.01683613730717,
        "alt_km": 412.2429529776773,
        "timestamp": "2025-12-04T23:34:04.490207+00:00",
        "meta_object_name": "STARLINK-34986",
        "meta_object_id": "2025-259AA",
        "meta_epoch": "2025-12-04T18:00:02.000160",
        "meta_mean_motion": 15.50531021,
        "meta_eccentricity": 0.000153,
        "meta_inclination": 43.0006,
        "meta_ra_of_asc_node": 93.9647,
        "meta_arg_of_pericenter": 274.8221,
        "meta_mean_anomaly": 14.2945,
        "meta_ephemeris_type": 0,
        "meta_classification_type": "U",
        "meta_norad_cat_id": 66446,
        "meta_element_set_no": 999,
        "meta_rev_at_epoch": 499,
        "meta_bstar": 0.00027298,
        "meta_mean_motion_dot": 0.00015678,
        "meta_mean_motion_ddot": 0,
        "tle_line1": "1 66446U 25259AA  25338.75002315  .00015678  00000+0  27298-3 0  9990",
        "tle_line2": "2 66446  43.0006  93.9647 0001530 274.8221  14.2945 15.50531021  4994"
      },
      "geometry": {
        "type": "Point",
        "coordinates": [
          -114.01683613730717,
          22.665793851329845
        ]
      }
    },
    {
      "type": "Feature",
      "properties": {
        "norad_id": 66447,
        "name": "STARLINK-34851",
        "group": "last-30-days",
        "lat": 20.296687585690027,
        "lon": -110.78529810913041,
        "alt_km": 412.4261919878072,
        "timestamp": "2025-12-04T23:34:04.490219+00:00",
        "meta_object_name": "STARLINK-34851",
        "meta_object_id": "2025-259AB",
        "meta_epoch": "2025-12-04T18:00:02.000160",
        "meta_mean_motion": 15.50550989,
        "meta_eccentricity": 0.0001214,
        "meta_inclination": 43.0007,
        "meta_ra_of_asc_node": 93.9554,
        "meta_arg_of_pericenter": 276.2533,
        "meta_mean_anomaly": 16.6797,
        "meta_ephemeris_type": 0,
        "meta_classification_type": "U",
        "meta_norad_cat_id": 66447,
        "meta_element_set_no": 999,
        "meta_rev_at_epoch": 488,
        "meta_bstar": -8.2709e-05,
        "meta_mean_motion_dot": -5.185e-05,
        "meta_mean_motion_ddot": 0,
        "tle_line1": "1 66447U 25259AB  25338.75002315 -.00005185  00000+0 -82709-4 0  9994",
        "tle_line2": "2 66447  43.0007  93.9554 0001214 276.2533  16.6797 15.50550989  4887"
      },
      "geometry": {
        "type": "Point",
        "coordinates": [
          -110.78529810913041,
          20.296687585690027
        ]
      }
    },
    {
      "type": "Feature",
      "properties": {
        "norad_id": 66448,
        "name": "STARLINK-35355",
        "group": "last-30-days",
        "lat": 19.09197035724475,
        "lon": -109.21045892338857,
        "alt_km": 412.5919797414517,
        "timestamp": "2025-12-04T23:34:04.490229+00:00",
        "meta_object_name": "STARLINK-35355",
        "meta_object_id": "2025-259AC",
        "meta_epoch": "2025-12-04T18:00:02.000160",
        "meta_mean_motion": 15.50540319,
        "meta_eccentricity": 0.000144,
        "meta_inclination": 43.0005,
        "meta_ra_of_asc_node": 93.9506,
        "meta_arg_of_pericenter": 269.8197,
        "meta_mean_anomaly": 25.0333,
        "meta_ephemeris_type": 0,
        "meta_classification_type": "U",
        "meta_norad_cat_id": 66448,
        "meta_element_set_no": 999,
        "meta_rev_at_epoch": 499,
        "meta_bstar": 0.00033119,
        "meta_mean_motion_dot": 0.00019108,
        "meta_mean_motion_ddot": 0,
        "tle_line1": "1 66448U 25259AC  25338.75002315  .00019108  00000+0  33119-3 0  9993",
        "tle_line2": "2 66448  43.0005  93.9506 0001440 269.8197  25.0333 15.50540319  4996"
      },
      "geometry": {
        "type": "Point",
        "coordinates": [
          -109.21045892338857,
          19.09197035724475
        ]
      }
    }
  ]
}